ONEWEB-0120             
1 47266U 20100J   25055.45067093  .00000402  00000+0  10807-2 0  9992
2 47266  87.8810  85.7797 0001872  88.8697 271.2646 13.12444397202062
ONEWEB-0121             
1 47267U 20100K   25055.43919761  .00000182  00000+0  47072-3 0  9999
2 47267  87.8805  85.7595 0002004  95.7652 264.3705 13.12442653201970
ONEWEB-0122             
1 47268U 20100L   25055.35795254  .00000053  00000+0  11290-3 0  9990
2 47268  87.8805  85.7810 0002031  91.6310 268.5051 13.12445678201876
ONEWEB-0123             
1 47269U 20100M   25055.35322118 -.00000120  00000+0 -36887-3 0  9992
2 47269  87.8809  85.8044 0001825  92.3219 267.8119 13.12442845202014
ONEWEB-0124             
1 47270U 20100N   25055.49434226 -.00000362  00000+0 -10406-2 0  9999
2 47270  87.8806  85.7734 0001906 100.7424 259.3919 13.12441790201910
ONEWEB-0125             
1 47271U 20100P   25055.47163259  .00000006  00000+0 -17665-4 0  9993
2 47271  87.8808  85.7402 0001610 100.0590 260.0720 13.12441292201976
ONEWEB-0126             
1 47272U 20100Q   25055.11559355 -.00000309  00000+0 -89322-3 0  9996
2 47272  87.8807  85.8077 0001895  89.6567 270.4779 13.12443594201994
ONEWEB-0127             
1 47273U 20100R   25055.07747463  .00000390  00000+0  10492-2 0  9990
2 47273  87.8810  85.8525 0001952  90.0401 270.0951 13.12440819202013
